LYNK TOWER 4            
1 55034U 23001AB  26068.67743801  .00009160  00000+0  30014-3 0  9997
2 55034  97.3324 128.5940 0010321 112.3386 247.8950 15.31819885176588
STARLINK-35708          
1 66277U 25247N   26068.61467776  .00015719  00000+0  54182-3 0  9999
2 66277  53.1579 191.6852 0000826 112.4942 247.6146 15.30194602 21072
